[{"OBJECT_NAME":"STARLINK-30136","OBJECT_ID":"2023-079X","EPOCH":"2026-03-09T22:00:01.999584","MEAN_MOTION":15.19398117,"ECCENTRICITY":0.00021819,"INCLINATION":42.9997,"RA_OF_ASC_NODE":105.423,"ARG_OF_PERICENTER":293.1714,"MEAN_ANOMALY":139.2854,"EPHEMERIS_TYPE":0,"CLASSIFICATION_TYPE":"U","NORAD_CAT_ID":56844,"ELEMENT_SET_NO":999,"REV_AT_EPOCH":573,"BSTAR":0.0032058096,"MEAN_MOTION_DOT":0.00069572,"MEAN_MOTION_DDOT":0},{"OBJECT_NAME":"FLOCK 4H-34","OBJECT_ID":"2025-276BZ","EPOCH":"2026-03-09T04:19:28.608672","MEAN_MOTION":15.1928367,"ECCENTRICITY":0.00010193,"INCLINATION":97.4305,"RA_OF_ASC_NODE":143.5834,"ARG_OF_PERICENTER":313.8618,"MEAN_ANOMALY":46.2533,"EPHEMERIS_TYPE":0,"CLASSIFICATION_TYPE":"U","NORAD_CAT_ID":66737,"ELEMENT_SET_NO":999,"REV_AT_EPOCH":1449,"BSTAR":0.00036111821,"MEAN_MOTION_DOT":7.553e-5,"MEAN_MOTION_DDOT":0}]
